[Satellite]
VERSION=1.1
NAME=OSCAR 29
NICKNAME=OSCAR 29
TLE1=1 18362U 87080B   17186.03116204  .00000054  00000-0  74840-4 0  9999
TLE2=2 18362  90.3312 336.3201 0108133  66.6620  70.5171 13.44027357460973
